CREW DRAGON 12          
1 67796U 26031A   26063.15679535  .00010207  00000+0  19684-3 0  9995
2 67796  51.6316  99.7104 0008201 155.0339 205.1047 15.48434477555793
